[{"OBJECT_NAME":"IRIDIUM 125","OBJECT_ID":"2017-061K","EPOCH":"2026-03-09T21:31:26.578560","MEAN_MOTION":14.342175,"ECCENTRICITY":0.00017652,"INCLINATION":86.3918,"RA_OF_ASC_NODE":66.8822,"ARG_OF_PERICENTER":75.1905,"MEAN_ANOMALY":284.9486,"EPHEMERIS_TYPE":0,"CLASSIFICATION_TYPE":"U","NORAD_CAT_ID":42964,"ELEMENT_SET_NO":999,"REV_AT_EPOCH":44062,"BSTAR":-1.144702e-6,"MEAN_MOTION_DOT":1.7e-7,"MEAN_MOTION_DDOT":0},{"OBJECT_NAME":"NOAA 6","OBJECT_ID":"1979-057A","EPOCH":"2026-03-09T16:35:00.749760","MEAN_MOTION":14.35433611,"ECCENTRICITY":0.00097192,"INCLINATION":98.5751,"RA_OF_ASC_NODE":98.8445,"ARG_OF_PERICENTER":186.9208,"MEAN_ANOMALY":173.1845,"EPHEMERIS_TYPE":0,"CLASSIFICATION_TYPE":"U","NORAD_CAT_ID":11416,"ELEMENT_SET_NO":999,"REV_AT_EPOCH":43668,"BSTAR":0.0001473812,"MEAN_MOTION_DOT":3.79e-6,"MEAN_MOTION_DDOT":0}]
